MAKERSAT 0              
1 43016U 17073D   26114.64954373  .00017210  00000+0  49072-3 0  9992
2 43016  97.4704 356.8254 0114276 103.0652 258.3373 15.29744556458273
SIRION PATHFINDER-2     
1 43759U 18099B   26114.65748244  .00003575  00000+0  20007-3 0  9990
2 43759  97.4305 164.9940 0010438 121.1075 239.1182 15.14039219404520
CORVUS BC4              
1 43767U 18099K   26114.65852027  .00003542  00000+0  20958-3 0  9993
2 43767  97.4123 159.2096 0008579 174.4414 185.6913 15.12046862404311
M2 PATHFINDER           
1 45727U 20037E   26114.50911739  .00001296  00000+0  97240-4 0  9999
2 45727  97.8169 305.1412 0010969 343.0073  17.0783 15.04434890317429
NETSAT-4                
1 46504U 20068U   26114.94556918  .00014775  00000+0  34762-3 0  9994
2 46504  97.8636 118.9831 0007097 137.1166 223.0634 15.42060232307565
NETSAT-3                
1 46505U 20068V   26114.90973143  .00015179  00000+0  37214-3 0  9998
2 46505  97.8680 117.2319 0006418 149.9459 210.2155 15.40813315307472
NETSAT-1                
1 46506U 20068W   26114.90610428  .00010647  00000+0  33315-3 0  9996
2 46506  97.8760 112.1669 0005104 170.4957 189.6382 15.33317381307135
NETSAT-2                
1 46507U 20068X   26114.92082688  .00018815  00000+0  41837-3 0  9993
2 46507  97.8649 118.6775 0004813 153.3465 206.8030 15.43708610307515
GREENCUBE (IO-117)      
1 53109U 22080E   26114.48973893 -.00000003  00000+0  00000+0 0  9997
2 53109  70.1464 316.9295 0008778 301.9083  58.0722  6.42583408 88618
SITRO-AIS 5 (KATYS)     
1 57176U 23091L   26114.92295939  .00010243  00000+0  37454-3 0  9998
2 57176  97.5097 178.3569 0009898 291.6541  68.3644 15.28224732156207
SITRO-AIS 6 (CHIRKIN)   
1 57192U 23091AC  26114.91475138  .00005113  00000+0  20732-3 0  9997
2 57192  97.5105 177.7393 0010376 297.1349  62.8830 15.25042116156165
SITRO-AIS 8 (ANOKHIN)   
1 57193U 23091AD  26114.89861384  .00011839  00000+0  40099-3 0  9997
2 57193  97.5092 179.7138 0009075 287.3135  72.7112 15.30696988156293
SITRO-AIS 7 (FARTUSHNIY)
1 57194U 23091AE  26114.90746718  .00005007  00000+0  20484-3 0  9999
2 57194  97.5103 177.5831 0010273 298.2935  61.7265 15.24760013156150
SITRO-AIS 10 (BURDAEV)  
1 57199U 23091AK  26114.88390293  .00016946  00000+0  47608-3 0  9995
2 57199  97.5110 184.2296 0005512 254.9063 105.1571 15.36588119156571
SITRO-AIS 9 (SHCHUKIN)  
1 57201U 23091AM  26114.89434998  .00016406  00000+0  46745-3 0  9993
2 57201  97.5109 184.0096 0005705 255.6863 104.3747 15.36152754156566
SITRO-AIS 12 (SMIRENNIY)
1 57204U 23091AQ  26114.89483424  .00016574  00000+0  46809-3 0  9991
2 57204  97.5120 184.4446 0005469 247.8247 112.2417 15.36426847156582
SITRO-AIS 11 (SHEFFER)  
1 57208U 23091AU  26114.92215475  .00017008  00000+0  47441-3 0  9994
2 57208  97.5118 184.6874 0005404 247.3846 112.6826 15.36811352156609
SITRO-AIS 25            
1 59066U 24039R   26114.97069986  .00005414  00000+0  42313-3 0  9991
2 59066  95.3918 198.5325 0147006 153.4303 207.4556 14.93066904116787
SITRO-AIS 26            
1 59067U 24039S   26114.89795506  .00004892  00000+0  38438-3 0  9999
2 59067  95.3918 198.3909 0147248 154.2229 206.6432 14.92873204116768
SITRO-AIS 27            
1 59068U 24039T   26114.94993603  .00004360  00000+0  33995-3 0  9997
2 59068  95.3921 198.6743 0146317 152.7988 208.1001 14.93280000116792
SITRO-AIS 28            
1 59071U 24039U   26114.92861966  .00005034  00000+0  39176-3 0  9991
2 59071  95.3928 198.7036 0146252 152.6531 208.2492 14.93318341116795
GRBBETA                 
1 60237U 24128C   26114.91846430  .00003425  00000+0  24155-3 0  9997
2 60237  61.9911  43.0956 0047172 123.4167 237.1451 15.06196634 98246
OOV-CUBE (TUBSAT-30)    
1 60240U 24128F   26114.95244923  .00002048  00000+0  16521-3 0  9992
2 60240  61.9958  51.1607 0050643 122.0520 238.5505 15.02499879 98113
ROBUSTA-3A (MEDITERRAN*)
1 60243U 24128J   26114.93767268  .00007106  00000+0  42692-3 0  9993
2 60243  61.9878  36.4311 0048014 117.2530 243.3468 15.10820546 98379
LASARSAT                
1 62391U 24247Q   26114.94732520  .00025963  00000+0  57962-3 0  9992
2 62391  44.9752 200.6292 0005617 347.0614  13.0130 15.43120795 75084
CROCUBE                 
1 62394U 24247T   26114.29106361  .00028085  00000+0  59681-3 0  9999
2 62394  44.9718 202.4030 0005333 341.4589  18.6105 15.44545512 75007
FORESAIL-1 PRIME        
1 66778U 25276DS  26114.94797650  .00004538  00000+0  22523-3 0  9993
2 66778  97.4215 189.2086 0000904 320.5645  39.5523 15.18197164 22325
KNACKSAT-2              
1 67683U 98067XZ  26114.52169863  .00033944  00000+0  49127-3 0  9992
2 67683  51.6296 203.4596 0012237 358.7727   1.3233 15.55489926 11912
